STARLINK-34610          
1 65034U 25161V   25243.58335648  .00074312  00000+0  18528-2 0  9993
2 65034  53.1609  99.4051 0001090 100.4192 237.1749 15.39568907  6089
STARLINK-34286          
1 65035U 25161W   25243.58335648  .00076808  00000+0  19143-2 0  9990
2 65035  53.1598  99.3035 0001206  93.6215 295.4691 15.39565363  5924
STARLINK-34770          
1 65036U 25161X   25243.58335648  .00075637  00000+0  18858-2 0  9992
2 65036  53.1611  99.5058 0001215  94.3202 191.7802 15.39560892  6084
STARLINK-34776          
1 65037U 25161Y   25243.58335648  .00119034  00000+0  29459-2 0  9992
2 65037  53.1612  99.4558 0001365 105.2756 206.5768 15.39554795  6094
STARLINK-34827          
1 65038U 25161Z   25243.58335648 -.01562047  00000+0 -35667-1 0  9999
2 65038  53.1593  99.1819 0000907  95.4503 353.5746 15.45435654  6099
STARLINK-34721          
1 65039U 25161AA  25243.56589920  .00112327  00000+0  20537-2 0  9992
2 65039  53.1594  99.2523 0002906 145.1691 214.9509 15.48532441  5097
STARLINK-34819          
1 65040U 25161AB  25243.30735183  .00109626  00000+0  19491-2 0  9995
2 65040  53.1603 100.4803 0000407  81.0644 279.0411 15.49345849  5051
STARLINK-34820          
1 65041U 25161AC  25241.82366530  .00149145  00000+0  26798-2 0  9995
2 65041  53.1606 107.5739 0002441  48.7575 311.3644 15.48867950  4827
STARLINK-34824          
1 65042U 25161AD  25243.58335648 -.01372983  00000+0 -34812-1 0  9993
2 65042  53.1592  99.2047 0000415 112.2895 325.2714 15.41981840  6093
STARLINK-34771          
1 65078U 25167A   25243.58335648 -.01648621  00000+0 -32014-1 0  9995
2 65078  53.1594 193.6397 0001228  94.9777  86.6737 15.50215428  5600
STARLINK-34634          
1 65079U 25167B   25243.58335648 -.01625499  00000+0 -33300-1 0  9993
2 65079  53.1592 193.7131 0001441  96.6779  48.6588 15.48663130  5554
STARLINK-34267          
1 65080U 25167C   25243.58335648 -.00111477  00000+0 -20191-2 0  9995
2 65080  53.1592 193.6393 0000941 144.0720  37.2402 15.49391159  5608
STARLINK-34561          
1 65081U 25167D   25243.58335648 -.01646164  00000+0 -31309-1 0  9995
2 65081  53.1596 193.5995 0001408  97.8996 103.2082 15.50788747  5602
STARLINK-34626          
1 65082U 25167E   25243.30917121  .00067403  00000+0  16789-2 0  9994
2 65082  53.1602 196.5849 0001672  77.5656 282.5536 15.39642263  4257
STARLINK-34247          
1 65083U 25167F   25243.58335648 -.01647462  00000+0 -33102-1 0  9992
2 65083  53.1594 193.6720 0001229  86.1396  79.5357 15.49254977  5606
STARLINK-34601          
1 65084U 25167G   25243.56180993  .00218939  00000+0  14593-2 0  9996
2 65084  53.1575 193.1368 0001164  99.5644 260.5508 15.74210220  4320
