[{"OBJECT_NAME":"STARLINK-34610","OBJECT_ID":"2025-161V","EPOCH":"2025-08-31T14:00:01.999872","MEAN_MOTION":15.39568907,"ECCENTRICITY":0.00010901,"INCLINATION":53.1609,"RA_OF_ASC_NODE":99.4051,"ARG_OF_PERICENTER":100.4192,"MEAN_ANOMALY":237.1749,"EPHEMERIS_TYPE":0,"CLASSIFICATION_TYPE":"U","NORAD_CAT_ID":65034,"ELEMENT_SET_NO":999,"REV_AT_EPOCH":608,"BSTAR":0.0018528298,"MEAN_MOTION_DOT":0.00074312,"MEAN_MOTION_DDOT":0},{"OBJECT_NAME":"STARLINK-34286","OBJECT_ID":"2025-161W","EPOCH":"2025-08-31T14:00:01.999872","MEAN_MOTION":15.39565363,"ECCENTRICITY":0.00012067,"INCLINATION":53.1598,"RA_OF_ASC_NODE":99.3035,"ARG_OF_PERICENTER":93.6215,"MEAN_ANOMALY":295.4691,"EPHEMERIS_TYPE":0,"CLASSIFICATION_TYPE":"U","NORAD_CAT_ID":65035,"ELEMENT_SET_NO":999,"REV_AT_EPOCH":592,"BSTAR":0.0019143279,"MEAN_MOTION_DOT":0.00076808,"MEAN_MOTION_DDOT":0},{"OBJECT_NAME":"STARLINK-34770","OBJECT_ID":"2025-161X","EPOCH":"2025-08-31T14:00:01.999872","MEAN_MOTION":15.39560892,"ECCENTRICITY":0.00012151,"INCLINATION":53.1611,"RA_OF_ASC_NODE":99.5058,"ARG_OF_PERICENTER":94.3202,"MEAN_ANOMALY":191.7802,"EPHEMERIS_TYPE":0,"CLASSIFICATION_TYPE":"U","NORAD_CAT_ID":65036,"ELEMENT_SET_NO":999,"REV_AT_EPOCH":608,"BSTAR":0.0018858458,"MEAN_MOTION_DOT":0.00075637,"MEAN_MOTION_DDOT":0},{"OBJECT_NAME":"STARLINK-34776","OBJECT_ID":"2025-161Y","EPOCH":"2025-08-31T14:00:01.999872","MEAN_MOTION":15.39554795,"ECCENTRICITY":0.00013656,"INCLINATION":53.1612,"RA_OF_ASC_NODE":99.4558,"ARG_OF_PERICENTER":105.2756,"MEAN_ANOMALY":206.5768,"EPHEMERIS_TYPE":0,"CLASSIFICATION_TYPE":"U","NORAD_CAT_ID":65037,"ELEMENT_SET_NO":999,"REV_AT_EPOCH":609,"BSTAR":0.0029458985,"MEAN_MOTION_DOT":0.00119034,"MEAN_MOTION_DDOT":0},{"OBJECT_NAME":"STARLINK-34827","OBJECT_ID":"2025-161Z","EPOCH":"2025-08-31T14:00:01.999872","MEAN_MOTION":15.45435654,"ECCENTRICITY":9.078e-5,"INCLINATION":53.1593,"RA_OF_ASC_NODE":99.1819,"ARG_OF_PERICENTER":95.4503,"MEAN_ANOMALY":353.5746,"EPHEMERIS_TYPE":0,"CLASSIFICATION_TYPE":"U","NORAD_CAT_ID":65038,"ELEMENT_SET_NO":999,"REV_AT_EPOCH":609,"BSTAR":-0.035666981,"MEAN_MOTION_DOT":-0.01562047,"MEAN_MOTION_DDOT":0},{"OBJECT_NAME":"STARLINK-34721","OBJECT_ID":"2025-161AA","EPOCH":"2025-08-31T13:34:53.690880","MEAN_MOTION":15.48532441,"ECCENTRICITY":0.00029068,"INCLINATION":53.1594,"RA_OF_ASC_NODE":99.2523,"ARG_OF_PERICENTER":145.1691,"MEAN_ANOMALY":214.9509,"EPHEMERIS_TYPE":0,"CLASSIFICATION_TYPE":"U","NORAD_CAT_ID":65039,"ELEMENT_SET_NO":999,"REV_AT_EPOCH":509,"BSTAR":0.0020537322,"MEAN_MOTION_DOT":0.00112327,"MEAN_MOTION_DDOT":0},{"OBJECT_NAME":"STARLINK-34819","OBJECT_ID":"2025-161AB","EPOCH":"2025-08-31T07:22:35.198112","MEAN_MOTION":15.49345849,"ECCENTRICITY":4.073e-5,"INCLINATION":53.1603,"RA_OF_ASC_NODE":100.4803,"ARG_OF_PERICENTER":81.0644,"MEAN_ANOMALY":279.0411,"EPHEMERIS_TYPE":0,"CLASSIFICATION_TYPE":"U","NORAD_CAT_ID":65040,"ELEMENT_SET_NO":999,"REV_AT_EPOCH":505,"BSTAR":0.0019490508,"MEAN_MOTION_DOT":0.00109626,"MEAN_MOTION_DDOT":0},{"OBJECT_NAME":"STARLINK-34820","OBJECT_ID":"2025-161AC","EPOCH":"2025-08-29T19:46:04.681920","MEAN_MOTION":15.4886795,"ECCENTRICITY":0.00024412,"INCLINATION":53.1606,"RA_OF_ASC_NODE":107.5739,"ARG_OF_PERICENTER":48.7575,"MEAN_ANOMALY":311.3644,"EPHEMERIS_TYPE":0,"CLASSIFICATION_TYPE":"U","NORAD_CAT_ID":65041,"ELEMENT_SET_NO":999,"REV_AT_EPOCH":482,"BSTAR":0.0026798345,"MEAN_MOTION_DOT":0.00149145,"MEAN_MOTION_DDOT":0},{"OBJECT_NAME":"STARLINK-34824","OBJECT_ID":"2025-161AD","EPOCH":"2025-08-31T14:00:01.999872","MEAN_MOTION":15.4198184,"ECCENTRICITY":4.151e-5,"INCLINATION":53.1592,"RA_OF_ASC_NODE":99.2047,"ARG_OF_PERICENTER":112.2895,"MEAN_ANOMALY":325.2714,"EPHEMERIS_TYPE":0,"CLASSIFICATION_TYPE":"U","NORAD_CAT_ID":65042,"ELEMENT_SET_NO":999,"REV_AT_EPOCH":609,"BSTAR":-0.034811761,"MEAN_MOTION_DOT":-0.01372983,"MEAN_MOTION_DDOT":0},{"OBJECT_NAME":"STARLINK-34771","OBJECT_ID":"2025-167A","EPOCH":"2025-08-31T14:00:01.999872","MEAN_MOTION":15.50215428,"ECCENTRICITY":0.0001228,"INCLINATION":53.1594,"RA_OF_ASC_NODE":193.6397,"ARG_OF_PERICENTER":94.9777,"MEAN_ANOMALY":86.6737,"EPHEMERIS_TYPE":0,"CLASSIFICATION_TYPE":"U","NORAD_CAT_ID":65078,"ELEMENT_SET_NO":999,"REV_AT_EPOCH":560,"BSTAR":-0.032013802,"MEAN_MOTION_DOT":-0.01648621,"MEAN_MOTION_DDOT":0},{"OBJECT_NAME":"STARLINK-34634","OBJECT_ID":"2025-167B","EPOCH":"2025-08-31T14:00:01.999872","MEAN_MOTION":15.4866313,"ECCENTRICITY":0.00014419,"INCLINATION":53.1592,"RA_OF_ASC_NODE":193.7131,"ARG_OF_PERICENTER":96.6779,"MEAN_ANOMALY":48.6588,"EPHEMERIS_TYPE":0,"CLASSIFICATION_TYPE":"U","NORAD_CAT_ID":65079,"ELEMENT_SET_NO":999,"REV_AT_EPOCH":555,"BSTAR":-0.033300018,"MEAN_MOTION_DOT":-0.01625499,"MEAN_MOTION_DDOT":0},{"OBJECT_NAME":"STARLINK-34267","OBJECT_ID":"2025-167C","EPOCH":"2025-08-31T14:00:01.999872","MEAN_MOTION":15.49391159,"ECCENTRICITY":9.417e-5,"INCLINATION":53.1592,"RA_OF_ASC_NODE":193.6393,"ARG_OF_PERICENTER":144.072,"MEAN_ANOMALY":37.2402,"EPHEMERIS_TYPE":0,"CLASSIFICATION_TYPE":"U","NORAD_CAT_ID":65080,"ELEMENT_SET_NO":999,"REV_AT_EPOCH":560,"BSTAR":-0.0020191276,"MEAN_MOTION_DOT":-0.00111477,"MEAN_MOTION_DDOT":0},{"OBJECT_NAME":"STARLINK-34561","OBJECT_ID":"2025-167D","EPOCH":"2025-08-31T14:00:01.999872","MEAN_MOTION":15.50788747,"ECCENTRICITY":0.00014085,"INCLINATION":53.1596,"RA_OF_ASC_NODE":193.5995,"ARG_OF_PERICENTER":97.8996,"MEAN_ANOMALY":103.2082,"EPHEMERIS_TYPE":0,"CLASSIFICATION_TYPE":"U","NORAD_CAT_ID":65081,"ELEMENT_SET_NO":999,"REV_AT_EPOCH":560,"BSTAR":-0.031309042,"MEAN_MOTION_DOT":-0.01646164,"MEAN_MOTION_DDOT":0},{"OBJECT_NAME":"STARLINK-34626","OBJECT_ID":"2025-167E","EPOCH":"2025-08-31T07:25:12.392544","MEAN_MOTION":15.39642263,"ECCENTRICITY":0.00016725,"INCLINATION":53.1602,"RA_OF_ASC_NODE":196.5849,"ARG_OF_PERICENTER":77.5656,"MEAN_ANOMALY":282.5536,"EPHEMERIS_TYPE":0,"CLASSIFICATION_TYPE":"U","NORAD_CAT_ID":65082,"ELEMENT_SET_NO":999,"REV_AT_EPOCH":425,"BSTAR":0.0016789399,"MEAN_MOTION_DOT":0.00067403,"MEAN_MOTION_DDOT":0},{"OBJECT_NAME":"STARLINK-34247","OBJECT_ID":"2025-167F","EPOCH":"2025-08-31T14:00:01.999872","MEAN_MOTION":15.49254977,"ECCENTRICITY":0.00012293,"INCLINATION":53.1594,"RA_OF_ASC_NODE":193.672,"ARG_OF_PERICENTER":86.1396,"MEAN_ANOMALY":79.5357,"EPHEMERIS_TYPE":0,"CLASSIFICATION_TYPE":"U","NORAD_CAT_ID":65083,"ELEMENT_SET_NO":999,"REV_AT_EPOCH":560,"BSTAR":-0.033102321,"MEAN_MOTION_DOT":-0.01647462,"MEAN_MOTION_DDOT":0},{"OBJECT_NAME":"STARLINK-34601","OBJECT_ID":"2025-167G","EPOCH":"2025-08-31T13:29:00.377952","MEAN_MOTION":15.7421022,"ECCENTRICITY":0.00011643,"INCLINATION":53.1575,"RA_OF_ASC_NODE":193.1368,"ARG_OF_PERICENTER":99.5644,"MEAN_ANOMALY":260.5508,"EPHEMERIS_TYPE":0,"CLASSIFICATION_TYPE":"U","NORAD_CAT_ID":65084,"ELEMENT_SET_NO":999,"REV_AT_EPOCH":432,"BSTAR":0.0014593338,"MEAN_MOTION_DOT":0.00218939,"MEAN_MOTION_DDOT":0}]
